NORAD_CAT_ID,OBJECT_NAME,OBJECT_TYPE,EPOCH,MEAN_MOTION,ECCENTRICITY,INCLINATION,RA_OF_ASC_NODE,ARG_OF_PERICENTER,MEAN_ANOMALY,BSTAR,MEAN_MOTION_DOT,MEAN_MOTION_DDOT,TLE_LINE0,TLE_LINE1,TLE_LINE2,SEMIMAJOR_AXIS,PERIOD,APOGEE,PERIGEE,DECAYED
56461.0,STARLINK-6037,PAYLOAD,2024-03-20 21:49:58,14.98327949,0.0002824,70.0005,156.6024,270.0839,89.9996,-3.5245e-05,-5.13e-06,0.0,0 STARLINK-6037,1 56461U 23064P   24080.90970367 -.00000513  00000-0 -35245-4 0  9996,2 56461  70.0005 156.6024 0002824 270.0839  89.9996 14.98327949 47585,6950.199,96.107,574.027,570.101,0.0
56461.0,STARLINK-6037,PAYLOAD,2024-03-21 04:14:30,14.98336027,0.0003101,69.9994,155.9276,276.068,84.0125,-7.8229e-05,-1.026e-05,0.0,0 STARLINK-6037,1 56461U 23064P   24081.17673991 -.00001026  00000-0 -78229-4 0  9998,2 56461  69.9994 155.9276 0003101 276.0680  84.0125 14.98336027 47980,6950.174,96.107,574.195,569.884,0.0
56461.0,STARLINK-6037,PAYLOAD,2024-03-21 12:15:09,14.9834028,0.0002631,69.9996,155.0863,272.8332,87.2526,6.2807e-05,6.57e-06,0.0,0 STARLINK-6037,1 56461U 23064P   24081.51053177  .00000657  00000-0  62807-4 0  9996,2 56461  69.9996 155.0863 0002631 272.8332  87.2526 14.98340280 48033,6950.161,96.106,573.855,570.198,0.0
56461.0,STARLINK-6037,PAYLOAD,2024-03-21 13:51:17,14.98346146,0.0002944,69.9998,154.9179,275.0659,85.0164,2.9926e-05,2.64e-06,0.0,0 STARLINK-6037,1 56461U 23064P   24081.57728800  .00000264  00000-0  29926-4 0  9993,2 56461  69.9998 154.9179 0002944 275.0659  85.0164 14.98346146 47688,6950.143,96.106,574.054,569.962,0.0
56461.0,STARLINK-6037,PAYLOAD,2024-03-22 12:17:10,14.98334985,0.0002756,69.9999,152.5616,270.7586,89.3257,0.00020948,2.408e-05,0.0,0 STARLINK-6037,1 56461U 23064P   24082.51192537  .00002408  00000-0  20948-3 0  9996,2 56461  69.9999 152.5616 0002756 270.7586  89.3257 14.98334985 48185,6950.177,96.107,573.958,570.127,0.0
56461.0,STARLINK-6037,PAYLOAD,2024-03-22 13:53:18,14.98338371,0.0002724,69.9999,152.3932,270.4646,89.6201,0.00024031,2.776e-05,0.0,0 STARLINK-6037,1 56461U 23064P   24082.57868188  .00002776  00000-0  24031-3 0  9999,2 56461  69.9999 152.3932 0002724 270.4646  89.6201 14.98338371 47839,6950.167,96.106,573.925,570.139,0.0
56461.0,STARLINK-6037,PAYLOAD,2024-03-23 12:19:13,14.98317888,0.000266,70.0007,150.0379,254.2572,105.8293,-0.00023942,-2.947e-05,0.0,0 STARLINK-6037,1 56461U 23064P   24083.51335060 -.00002947  00000-0 -23942-3 0  9994,2 56461  70.0007 150.0379 0002660 254.2572 105.8293 14.98317888 48337,6950.23,96.108,573.944,570.247,0.0
56461.0,STARLINK-6037,PAYLOAD,2024-03-23 13:55:21,14.98318709,0.0002773,70.0001,149.8687,260.1131,99.9715,-0.00023574,-2.904e-05,0.0,0 STARLINK-6037,1 56461U 23064P   24083.58011052 -.00002904  00000-0 -23574-3 0  9997,2 56461  70.0001 149.8687 0002773 260.1131  99.9715 14.98318709 47986,6950.228,96.108,574.02,570.166,0.0
56461.0,STARLINK-6037,PAYLOAD,2024-03-24 04:20:33,14.98330988,0.0003273,69.9991,148.3538,272.4949,87.5835,-0.00011749,-1.495e-05,0.0,0 STARLINK-6037,1 56461U 23064P   24084.18094086 -.00001495  00000-0 -11749-3 0  9997,2 56461  69.9991 148.3538 0003273 272.4949  87.5835 14.98330988 48439,6950.19,96.107,574.33,569.78,0.0
56461.0,STARLINK-6037,PAYLOAD,2024-03-24 12:21:12,14.98345638,0.0003024,69.9994,147.5117,270.6346,89.4466,4.0591e-05,3.92e-06,0.0,0 STARLINK-6037,1 56461U 23064P   24084.51472660  .00000392  00000-0  40591-4 0  9993,2 56461  69.9994 147.5117 0003024 270.6346  89.4466 14.98345638 48485,6950.145,96.106,574.111,569.908,0.0
56461.0,STARLINK-6037,PAYLOAD,2024-03-24 13:57:20,14.98346679,0.0002983,69.9996,147.3438,269.9857,90.096,7.6974e-05,8.26e-06,0.0,0 STARLINK-6037,1 56461U 23064P   24084.58148454  .00000826  00000-0  76974-4 0  9997,2 56461  69.9996 147.3438 0002983 269.9857  90.0960 14.98346679 48137,6950.141,96.106,574.08,569.933,0.0
56461.0,STARLINK-6037,PAYLOAD,2024-03-24 21:58:01,14.98338354,0.0002546,70.0012,146.499,288.4606,71.6276,-2.2221e-05,-3.58e-06,0.0,0 STARLINK-6037,1 56461U 23064P   24084.91529257 -.00000358  00000-0 -22221-4 0  9996,2 56461  70.0012 146.4990 0002546 288.4606  71.6276 14.98338354 48186,6950.167,96.106,573.802,570.263,0.0
56461.0,STARLINK-6037,PAYLOAD,2024-03-25 05:58:42,14.98321631,0.0002657,70.0,145.6599,271.2929,88.7925,0.0001768,2.017e-05,0.0,0 STARLINK-6037,1 56461U 23064P   24085.24909850  .00002017  00000-0  17680-3 0  9998,2 56461  70.0000 145.6599 0002657 271.2929  88.7925 14.98321631 48595,6950.219,96.108,573.93,570.237,0.0
56461.0,STARLINK-6037,PAYLOAD,2024-03-25 12:23:14,14.98322826,0.00028,69.9998,144.9868,269.5696,90.5142,0.00018581,2.124e-05,0.0,0 STARLINK-6037,1 56461U 23064P   24085.51613850  .00002124  00000-0  18581-3 0  9990,2 56461  69.9998 144.9868 0002800 269.5696  90.5142 14.98322826 48274,6950.215,96.107,574.026,570.134,0.0
56461.0,STARLINK-6037,PAYLOAD,2024-03-26 04:24:36,14.98286255,0.0001944,70.0028,143.3051,257.6163,102.4779,0.0004736,5.556e-05,0.0,0 STARLINK-6037,1 56461U 23064P   24086.18375312  .00005556  00000-0  47360-3 0  9991,2 56461  70.0028 143.3051 0001944 257.6163 102.4779 14.98286255 48738,6950.328,96.11,573.544,570.842,0.0
56461.0,STARLINK-6037,PAYLOAD,2024-03-26 12:25:16,14.98321025,0.0002967,69.999,142.4611,272.4472,87.6348,-0.00018647,-2.317e-05,0.0,0 STARLINK-6037,1 56461U 23064P   24086.51755504 -.00002317  00000-0 -18647-3 0  9993,2 56461  69.9990 142.4611 0002967 272.4472  87.6348 14.98321025 48785,6950.221,96.108,574.148,570.024,0.0
56461.0,STARLINK-6037,PAYLOAD,2024-03-26 14:01:24,14.98321274,0.0002913,69.9992,142.2932,270.8866,89.196,-0.00017312,-2.158e-05,0.0,0 STARLINK-6037,1 56461U 23064P   24086.58431487 -.00002158  00000-0 -17312-3 0  9992,2 56461  69.9992 142.2932 0002913 270.8866  89.1960 14.98321274 48436,6950.22,96.108,574.109,570.06,0.0
56461.0,STARLINK-6037,PAYLOAD,2024-03-26 20:25:56,14.98328158,0.0003396,69.9989,141.6185,275.0267,85.0504,-9.0517e-05,-1.173e-05,0.0,0 STARLINK-6037,1 56461U 23064P   24086.85134796 -.00001173  00000-0 -90517-4 0  9990,2 56461  69.9989 141.6185 0003396 275.0267  85.0504 14.98328158 48834,6950.199,96.107,574.424,569.703,0.0
56461.0,STARLINK-6037,PAYLOAD,2024-03-27 12:27:17,14.9832893,0.0002986,69.9994,139.9371,276.9836,83.0983,4.5013e-05,4.44e-06,0.0,0 STARLINK-6037,1 56461U 23064P   24087.51894677  .00000444  00000-0  45013-4 0  9994,2 56461  69.9994 139.9371 0002986 276.9836  83.0983 14.98328930 48571,6950.196,96.107,574.137,569.986,0.0
56461.0,STARLINK-6037,PAYLOAD,2024-03-28 04:28:36,14.98334372,0.0003153,69.9987,138.2534,273.6831,86.3968,0.00026107,3.024e-05,0.0,0 STARLINK-6037,1 56461U 23064P   24088.18653606  .00003024  00000-0  26107-3 0  9992,2 56461  69.9987 138.2534 0003153 273.6831  86.3968 14.98334372 49030,6950.179,96.107,574.236,569.853,0.0
56461.0,STARLINK-6037,PAYLOAD,2024-03-28 12:29:16,14.98340916,0.0003099,69.9989,137.4118,274.3103,85.7702,0.00030682,3.571e-05,0.0,0 STARLINK-6037,1 56461U 23064P   24088.52032911  .00003571  00000-0  30682-3 0  9990,2 56461  69.9989 137.4118 0003099 274.3103  85.7702 14.98340916 48725,6950.159,96.106,574.178,569.87,0.0
56461.0,STARLINK-6037,PAYLOAD,2024-03-28 22:06:05,14.98333457,0.000288,69.9995,136.4021,273.4749,86.6081,0.00017096,1.948e-05,0.0,0 STARLINK-6037,1 56461U 23064P   24088.92089569  .00001948  00000-0  17096-3 0  9995,2 56461  69.9995 136.4021 0002880 273.4749  86.6081 14.98333457 48785,6950.182,96.107,574.049,570.046,0.0
56461.0,STARLINK-6037,PAYLOAD,2024-03-29 04:30:38,14.98329365,0.0002853,69.9997,135.7287,272.5222,87.561,-4.5538e-05,-6.36e-06,0.0,0 STARLINK-6037,1 56461U 23064P   24089.18794288 -.00000636  00000-0 -45538-4 0  9993,2 56461  69.9997 135.7287 0002853 272.5222  87.5610 14.98329365 49185,6950.195,96.107,574.043,570.077,0.0
56461.0,STARLINK-6037,PAYLOAD,2024-03-29 12:31:18,14.98333009,0.0002959,69.999,134.8871,269.4213,90.6607,-2.4462e-05,-3.85e-06,0.0,0 STARLINK-6037,1 56461U 23064P   24089.52173901 -.00000385  00000-0 -24462-4 0  9998,2 56461  69.9990 134.8871 0002959 269.4213  90.6607 14.98333009 48875,6950.184,96.107,574.105,569.992,0.0
56461.0,STARLINK-6037,PAYLOAD,2024-03-29 20:31:58,14.9833585,0.0003056,69.9989,134.0448,269.4477,90.6332,-7.8292e-05,-1.027e-05,0.0,0 STARLINK-6037,1 56461U 23064P   24089.85553684 -.00001027  00000-0 -78292-4 0  9998,2 56461  69.9989 134.0448 0003056 269.4477  90.6332 14.98335850 49283,6950.175,96.107,574.164,569.916,0.0
56461.0,STARLINK-6037,PAYLOAD,2024-03-30 12:33:18,14.98340253,0.0003041,69.9987,132.3617,271.1807,88.9003,-0.00010878,-1.391e-05,0.0,0 STARLINK-6037,1 56461U 23064P   24090.52313127 -.00001391  00000-0 -10878-3 0  9999,2 56461  69.9987 132.3617 0003041 271.1807  88.9003 14.98340253 49021,6950.161,96.106,574.14,569.913,0.0
56461.0,STARLINK-6037,PAYLOAD,2024-03-30 20:33:58,14.98337945,0.0003019,69.9989,131.5203,270.7979,89.2835,-0.00012982,-1.642e-05,0.0,0 STARLINK-6037,1 56461U 23064P   24090.85693138 -.00001642  00000-0 -12982-3 0  9995,2 56461  69.9989 131.5203 0003019 270.7979  89.2835 14.98337945 49431,6950.168,96.106,574.132,569.935,0.0
56461.0,STARLINK-6037,PAYLOAD,2024-03-31 12:35:19,14.98330143,0.0003457,69.9985,129.8371,268.7629,91.3134,0.00012028,1.342e-05,0.0,0 STARLINK-6037,1 56461U 23064P   24091.52452788  .00001342  00000-0  12028-3 0  9990,2 56461  69.9985 129.8371 0003457 268.7629  91.3134 14.98330143 49178,6950.192,96.107,574.46,569.655,0.0
56461.0,STARLINK-6037,PAYLOAD,2024-04-01 03:00:32,14.98335095,0.0002706,69.9987,128.322,272.2066,87.8783,-5.8002e-05,-7.85e-06,0.0,0 STARLINK-6037,1 56461U 23064P   24092.12537101 -.00000785  00000-0 -58002-4 0  9995,2 56461  69.9987 128.3220 0002706 272.2066  87.8783 14.98335095 49629,6950.177,96.107,573.923,570.161,0.0
56461.0,STARLINK-6037,PAYLOAD,2024-04-01 12:37:19,14.98353532,0.0002481,69.999,127.3128,260.5977,99.4902,-0.0003446,-4.205e-05,0.0,0 STARLINK-6037,1 56461U 23064P   24092.52592418 -.00004205  00000-0 -34460-3 0  9993,2 56461  69.9990 127.3128 0002481 260.5977  99.4902 14.98353532 49684,6950.12,96.105,573.709,570.261,0.0
